NORAD_CAT_ID,OBJECT_NAME,OBJECT_TYPE,EPOCH,MEAN_MOTION,ECCENTRICITY,INCLINATION,RA_OF_ASC_NODE,ARG_OF_PERICENTER,MEAN_ANOMALY,BSTAR,MEAN_MOTION_DOT,MEAN_MOTION_DDOT,TLE_LINE0,TLE_LINE1,TLE_LINE2,SEMIMAJOR_AXIS,PERIOD,APOGEE,PERIGEE,DECAYED
55956.0,STARLINK-5883,PAYLOAD,2023-12-19 11:21:56,14.98328881,0.0002459,69.9998,149.7095,264.3545,95.7334,-3.6734e-05,-5.31e-06,0.0,0 STARLINK-5883,1 55956U 23037AU  23353.47356801 -.00000531  00000-0 -36734-4 0  9993,2 55956  69.9998 149.7095 0002459 264.3545  95.7334 14.98328881 43309,6950.196,96.107,573.77,570.352,0.0
55956.0,STARLINK-5883,PAYLOAD,2023-12-19 14:34:12,14.98327974,0.0002502,69.9999,149.3727,260.0649,100.0228,-4.499e-05,-6.3e-06,0.0,0 STARLINK-5883,1 55956U 23037AU  23353.60708846 -.00000630  00000-0 -44990-4 0  9991,2 55956  69.9999 149.3727 0002502 260.0649 100.0228 14.98327974 42982,6950.199,96.107,573.803,570.325,0.0
55956.0,STARLINK-5883,PAYLOAD,2023-12-20 11:23:57,14.98330561,0.0002906,69.9995,147.1842,269.8692,90.2134,-2.2466e-05,-3.61e-06,0.0,0 STARLINK-5883,1 55956U 23037AU  23354.47496659 -.00000361  00000-0 -22466-4 0  9998,2 55956  69.9995 147.1842 0002906 269.8692  90.2134 14.98330561 43450,6950.191,96.107,574.076,570.036,0.0
55956.0,STARLINK-5883,PAYLOAD,2023-12-20 13:00:05,14.98333445,0.0002784,69.9995,147.0159,266.6689,93.4152,-2.2844e-05,-3.66e-06,0.0,0 STARLINK-5883,1 55956U 23037AU  23354.54172476 -.00000366  00000-0 -22844-4 0  9999,2 55956  69.9995 147.0159 0002784 266.6689  93.4152 14.98333445 43128,6950.182,96.107,573.982,570.112,0.0
55956.0,STARLINK-5883,PAYLOAD,2023-12-20 19:24:37,14.98334462,0.0002776,69.9997,146.3428,266.7015,93.3826,-6.9158e-06,-1.75e-06,0.0,0 STARLINK-5883,1 55956U 23037AU  23354.80876315 -.00000175  00000-0 -69158-5 0  9999,2 55956  69.9997 146.3428 0002776 266.7015  93.3826 14.98334462 43167,6950.179,96.107,573.973,570.115,0.0
55956.0,STARLINK-5883,PAYLOAD,2023-12-21 11:25:57,14.9832763,0.0002886,69.9996,144.6594,266.6866,93.3963,4.6387e-05,4.6e-06,0.0,0 STARLINK-5883,1 55956U 23037AU  23355.47636499  .00000460  00000-0  46387-4 0  9993,2 55956  69.9996 144.6594 0002886 266.6866  93.3963 14.98327630 43606,6950.2,96.107,574.071,570.059,0.0
55956.0,STARLINK-5883,PAYLOAD,2023-12-21 14:38:14,14.983272,0.0002892,69.9996,144.3229,265.7549,94.328,3.838e-05,3.65e-06,0.0,0 STARLINK-5883,1 55956U 23037AU  23355.60988554  .00000365  00000-0  38380-4 0  9998,2 55956  69.9996 144.3229 0002892 265.7549  94.3280 14.98327200 43283,6950.202,96.107,574.077,570.057,0.0
55956.0,STARLINK-5883,PAYLOAD,2023-12-22 11:27:58,14.98330753,0.0002779,70.0001,142.1357,256.9062,103.1787,-3.247e-05,-4.8e-06,0.0,0 STARLINK-5883,1 55956U 23037AU  23356.47776522 -.00000480  00000-0 -32470-4 0  9998,2 55956  70.0001 142.1357 0002779 256.9062 103.1787 14.98330753 43757,6950.191,96.107,573.987,570.124,0.0
55956.0,STARLINK-5883,PAYLOAD,2023-12-22 14:40:15,14.98330646,0.0002786,70.0001,141.799,256.8834,103.2014,-3.2214e-05,-4.77e-06,0.0,0 STARLINK-5883,1 55956U 23037AU  23356.61128515 -.00000477  00000-0 -32214-4 0  9999,2 55956  70.0001 141.7990 0002786 256.8834 103.2014 14.98330646 43439,6950.191,96.107,573.992,570.12,0.0
55956.0,STARLINK-5883,PAYLOAD,2023-12-22 19:28:39,14.98330198,0.0002802,70.0002,141.2943,258.091,101.9935,-3.7251e-05,-5.37e-06,0.0,0 STARLINK-5883,1 55956U 23037AU  23356.81156556 -.00000537  00000-0 -37251-4 0  9990,2 55956  70.0002 141.2943 0002802 258.0910 101.9935 14.98330198 43463,6950.192,96.107,574.005,570.11,0.0
55956.0,STARLINK-5883,PAYLOAD,2023-12-23 11:29:58,14.98337912,0.0002937,69.9992,139.6076,266.5495,93.5328,8.6782e-05,9.43e-06,0.0,0 STARLINK-5883,1 55956U 23037AU  23357.47915411  .00000943  00000-0  86782-4 0  9998,2 55956  69.9992 139.6076 0002937 266.5495  93.5328 14.98337912 43909,6950.168,96.106,574.075,569.992,0.0
55956.0,STARLINK-5883,PAYLOAD,2023-12-23 14:42:14,14.98338845,0.0002792,70.0001,139.2723,259.2317,100.8528,0.00013897,1.566e-05,0.0,0 STARLINK-5883,1 55956U 23037AU  23357.61267199  .00001566  00000-0  13897-3 0  9995,2 55956  70.0001 139.2723 0002792 259.2317 100.8528 14.98338845 43583,6950.166,96.106,573.971,570.09,0.0
55956.0,STARLINK-5883,PAYLOAD,2023-12-23 19:30:38,14.98344894,0.0002883,70.0002,138.7681,262.535,97.5482,0.0001997,2.291e-05,0.0,0 STARLINK-5883,1 55956U 23037AU  23357.81294480  .00002291  00000-0  19970-3 0  9994,2 55956  70.0002 138.7681 0002883 262.5350  97.5482 14.98344894 43959,6950.147,96.106,574.016,570.008,0.0
55956.0,STARLINK-5883,PAYLOAD,2023-12-24 11:32:14,14.98136843,0.0004434,69.9994,137.0846,261.776,98.2896,-0.002205,-0.00026177,0.0,0 STARLINK-5883,1 55956U 23037AU  23358.48072653 -.00026177  00000-0 -22050-2 0  9997,2 55956  69.9994 137.0846 0004434 261.7760  98.2896 14.98136843 44053,6950.79,96.119,575.737,569.573,0.0
55956.0,STARLINK-5883,PAYLOAD,2023-12-24 13:07:55,14.98497537,0.0004071,69.999,136.9159,255.0576,105.0133,0.0018159,0.00021737,0.0,0 STARLINK-5883,1 55956U 23037AU  23358.54717217  .00021737  00000-0  18159-2 0  9996,2 55956  69.9990 136.9159 0004071 255.0576 105.0133 14.98497537 43726,6949.675,96.096,574.369,568.711,0.0
55956.0,STARLINK-5883,PAYLOAD,2023-12-24 19:32:42,14.98310372,0.0003455,69.9991,136.2417,269.7428,90.3335,-0.00024568,-3.022e-05,0.0,0 STARLINK-5883,1 55956U 23037AU  23358.81437614 -.00003022  00000-0 -24568-3 0  9997,2 55956  69.9991 136.2417 0003455 269.7428  90.3335 14.98310372 44104,6950.254,96.108,574.52,569.717,0.0
55956.0,STARLINK-5883,PAYLOAD,2023-12-25 11:34:01,14.98334657,0.0003234,69.9997,134.5603,267.4767,92.6022,-0.00017095,-2.132e-05,0.0,0 STARLINK-5883,1 55956U 23037AU  23359.48196159 -.00002132  00000-0 -17095-3 0  9995,2 55956  69.9997 134.5603 0003234 267.4767  92.6022 14.98334657 44205,6950.178,96.107,574.291,569.796,0.0
55956.0,STARLINK-5883,PAYLOAD,2023-12-25 14:46:17,14.98335068,0.0003192,69.9997,134.2235,265.5424,94.537,-0.00017181,-2.143e-05,0.0,0 STARLINK-5883,1 55956U 23037AU  23359.61548076 -.00002143  00000-0 -17181-3 0  9997,2 55956  69.9997 134.2235 0003192 265.5424  94.5370 14.98335068 43882,6950.177,96.107,574.261,569.824,0.0
55956.0,STARLINK-5883,PAYLOAD,2023-12-25 19:34:41,14.98340583,0.0003167,69.9996,133.718,266.2753,93.8044,-8.8472e-05,-1.149e-05,0.0,0 STARLINK-5883,1 55956U 23037AU  23359.81575394 -.00001149  00000-0 -88472-4 0  9999,2 55956  69.9996 133.7180 0003167 266.2753  93.8044 14.98340583 44259,6950.16,96.106,574.226,569.824,0.0
55956.0,STARLINK-5883,PAYLOAD,2023-12-26 11:36:03,14.98361213,0.0003462,69.9991,132.0341,260.5572,99.5196,-0.0011136,-0.00013366,0.0,0 STARLINK-5883,1 55956U 23037AU  23360.48337635 -.00013366  00000-0 -11136-2 0  9993,2 55956  69.9991 132.0341 0003462 260.5572  99.5196 14.98361213 44354,6950.096,96.105,574.367,569.555,0.0
55956.0,STARLINK-5883,PAYLOAD,2023-12-26 14:48:19,14.98357011,0.0003507,69.9997,131.6974,261.6981,98.378,-0.00098785,-0.00011869,0.0,0 STARLINK-5883,1 55956U 23037AU  23360.61689352 -.00011869  00000-0 -98785-3 0  9996,2 55956  69.9997 131.6974 0003507 261.6981  98.3780 14.98357011 44035,6950.109,96.105,574.412,569.537,0.0
55956.0,STARLINK-5883,PAYLOAD,2023-12-26 18:00:35,14.98354395,0.0003723,69.9986,131.3603,267.429,92.6443,-0.00095654,-0.00011496,0.0,0 STARLINK-5883,1 55956U 23037AU  23360.75041330 -.00011496  00000-0 -95654-3 0  9997,2 55956  69.9986 131.3603 0003723 267.4290  92.6443 14.98354395 44053,6950.117,96.105,574.57,569.395,0.0
55956.0,STARLINK-5883,PAYLOAD,2023-12-27 11:38:04,14.98320366,0.0002727,70.0005,129.5113,258.4368,101.6485,-1.189e-05,-2.35e-06,0.0,0 STARLINK-5883,1 55956U 23037AU  23361.48477978 -.00000235  00000-0 -11890-4 0  9999,2 55956  70.0005 129.5113 0002727 258.4368 101.6485 14.98320366 44500,6950.223,96.108,573.983,570.192,0.0
55956.0,STARLINK-5883,PAYLOAD,2023-12-27 14:50:21,14.98321414,0.0002681,70.0007,129.175,259.2247,100.861,-5.7856e-06,-1.62e-06,0.0,0 STARLINK-5883,1 55956U 23037AU  23361.61829958 -.00000162  00000-0 -57856-5 0  9995,2 55956  70.0007 129.1750 0002681 259.2247 100.8610 14.98321414 44189,6950.219,96.108,573.948,570.221,0.0
55956.0,STARLINK-5883,PAYLOAD,2023-12-27 18:02:37,14.9832375,0.0002565,70.001,128.8387,255.3264,104.7611,2.79e-05,2.4e-06,0.0,0 STARLINK-5883,1 55956U 23037AU  23361.75181783  .00000240  00000-0  27900-4 0  9998,2 55956  70.0010 128.8387 0002565 255.3264 104.7611 14.98323750 44204,6950.212,96.107,573.86,570.294,0.0
55956.0,STARLINK-5883,PAYLOAD,2023-12-28 11:40:04,14.98328769,0.0003276,69.9992,126.985,272.5892,87.4892,0.00033752,3.936e-05,0.0,0 STARLINK-5883,1 55956U 23037AU  23362.48616606  .00003936  00000-0  33752-3 0  9992,2 55956  69.9992 126.9850 0003276 272.5892  87.4892 14.98328769 44654,6950.197,96.107,574.339,569.785,0.0
55956.0,STARLINK-5883,PAYLOAD,2023-12-28 13:16:12,14.98329609,0.0002996,69.9998,126.8172,268.2296,91.852,0.00033581,3.916e-05,0.0,0 STARLINK-5883,1 55956U 23037AU  23362.55292575  .00003916  00000-0  33581-3 0  9993,2 55956  69.9998 126.8172 0002996 268.2296  91.8520 14.98329609 44329,6950.194,96.107,574.141,569.977,0.0
55956.0,STARLINK-5883,PAYLOAD,2023-12-28 18:04:36,14.98338936,0.0003029,69.9998,126.3122,272.2512,87.83,0.00042676,5.004e-05,0.0,0 STARLINK-5883,1 55956U 23037AU  23362.75319706  .00005004  00000-0  42676-3 0  9996,2 55956  69.9998 126.3122 0003029 272.2512  87.8300 14.98338936 44697,6950.165,96.106,574.135,569.925,0.0
55956.0,STARLINK-5883,PAYLOAD,2023-12-29 11:42:06,14.98332576,0.0003053,70.0002,124.4621,269.4594,90.6215,-8.0042e-06,-1.89e-06,0.0,0 STARLINK-5883,1 55956U 23037AU  23363.48757104 -.00000189  00000-0 -80042-5 0  9997,2 55956  70.0002 124.4621 0003053 269.4594  90.6215 14.98332576 44808,6950.185,96.107,574.172,569.928,0.0
55956.0,STARLINK-5883,PAYLOAD,2023-12-29 13:18:14,14.98332911,0.0002646,70.0012,124.2957,258.8872,101.199,1.6535e-05,1.04e-06,0.0,0 STARLINK-5883,1 55956U 23037AU  23363.55432964  .00000104  00000-0  16535-4 0  9999,2 55956  70.0012 124.2957 0002646 258.8872 101.1990 14.98332911 44471,6950.184,96.107,573.888,570.21,0.0
